<?xml version="1.0" encoding="UTF-8"?>
<ndm xmlns:xsi="http://www.w3.org/2001/XMLSchema-instance" xsi:noNamespaceSchemaLocation="https://sanaregistry.org/r/ndmxml_unqualified/ndmxml-2.0.0-master-2.0.xsd">
<omm id="CCSDS_OMM_VERS" version="2.0">
<header><CREATION_DATE/><ORIGINATOR/></header><body><segment><metadata><OBJECT_NAME>ONEWEB-0056</OBJECT_NAME><OBJECT_ID>2020-008AE</OBJECT_ID><CENTER_NAME>EARTH</CENTER_NAME><REF_FRAME>TEME</REF_FRAME><TIME_SYSTEM>UTC</TIME_SYSTEM><MEAN_ELEMENT_THEORY>SGP4</MEAN_ELEMENT_THEORY></metadata><data><meanElements><EPOCH>2026-01-04T13:58:23.248128</EPOCH><MEAN_MOTION>13.10373177</MEAN_MOTION><ECCENTRICITY>.00017795</ECCENTRICITY><INCLINATION>87.8792</INCLINATION><RA_OF_ASC_NODE>68.8758</RA_OF_ASC_NODE><ARG_OF_PERICENTER>109.0475</ARG_OF_PERICENTER><MEAN_ANOMALY>251.0845</MEAN_ANOMALY></meanElements><tleParameters><EPHEMERIS_TYPE>0</EPHEMERIS_TYPE><CLASSIFICATION_TYPE>U</CLASSIFICATION_TYPE><NORAD_CAT_ID>45159</NORAD_CAT_ID><ELEMENT_SET_NO>999</ELEMENT_SET_NO><REV_AT_EPOCH>28675</REV_AT_EPOCH><BSTAR>-.17782855E-2</BSTAR><MEAN_MOTION_DOT>-.608E-5</MEAN_MOTION_DOT><MEAN_MOTION_DDOT>0</MEAN_MOTION_DDOT></tleParameters></data></segment></body></omm>
<omm id="CCSDS_OMM_VERS" version="2.0">
<header><CREATION_DATE/><ORIGINATOR/></header><body><segment><metadata><OBJECT_NAME>ONEWEB-0057</OBJECT_NAME><OBJECT_ID>2020-008AF</OBJECT_ID><CENTER_NAME>EARTH</CENTER_NAME><REF_FRAME>TEME</REF_FRAME><TIME_SYSTEM>UTC</TIME_SYSTEM><MEAN_ELEMENT_THEORY>SGP4</MEAN_ELEMENT_THEORY></metadata><data><meanElements><EPOCH>2026-01-04T14:09:20.238048</EPOCH><MEAN_MOTION>13.10374113</MEAN_MOTION><ECCENTRICITY>.00019697</ECCENTRICITY><INCLINATION>87.8787</INCLINATION><RA_OF_ASC_NODE>68.8866</RA_OF_ASC_NODE><ARG_OF_PERICENTER>103.0003</ARG_OF_PERICENTER><MEAN_ANOMALY>257.1344</MEAN_ANOMALY></meanElements><tleParameters><EPHEMERIS_TYPE>0</EPHEMERIS_TYPE><CLASSIFICATION_TYPE>U</CLASSIFICATION_TYPE><NORAD_CAT_ID>45160</NORAD_CAT_ID><ELEMENT_SET_NO>999</ELEMENT_SET_NO><REV_AT_EPOCH>28692</REV_AT_EPOCH><BSTAR>-.19049806E-2</BSTAR><MEAN_MOTION_DOT>-.652E-5</MEAN_MOTION_DOT><MEAN_MOTION_DDOT>0</MEAN_MOTION_DDOT></tleParameters></data></segment></body></omm>
<omm id="CCSDS_OMM_VERS" version="2.0">
<header><CREATION_DATE/><ORIGINATOR/></header><body><segment><metadata><OBJECT_NAME>ONEWEB-0058</OBJECT_NAME><OBJECT_ID>2020-008AG</OBJECT_ID><CENTER_NAME>EARTH</CENTER_NAME><REF_FRAME>TEME</REF_FRAME><TIME_SYSTEM>UTC</TIME_SYSTEM><MEAN_ELEMENT_THEORY>SGP4</MEAN_ELEMENT_THEORY></metadata><data><meanElements><EPOCH>2026-01-04T15:40:11.532000</EPOCH><MEAN_MOTION>13.10370903</MEAN_MOTION><ECCENTRICITY>.00014987</ECCENTRICITY><INCLINATION>87.8780</INCLINATION><RA_OF_ASC_NODE>68.8841</RA_OF_ASC_NODE><ARG_OF_PERICENTER>97.1165</ARG_OF_PERICENTER><MEAN_ANOMALY>263.0132</MEAN_ANOMALY></meanElements><tleParameters><EPHEMERIS_TYPE>0</EPHEMERIS_TYPE><CLASSIFICATION_TYPE>U</CLASSIFICATION_TYPE><NORAD_CAT_ID>45161</NORAD_CAT_ID><ELEMENT_SET_NO>999</ELEMENT_SET_NO><REV_AT_EPOCH>28700</REV_AT_EPOCH><BSTAR>-.13796952E-2</BSTAR><MEAN_MOTION_DOT>-.469E-5</MEAN_MOTION_DOT><MEAN_MOTION_DDOT>0</MEAN_MOTION_DDOT></tleParameters></data></segment></body></omm>
<omm id="CCSDS_OMM_VERS" version="2.0">
<header><CREATION_DATE/><ORIGINATOR/></header><body><segment><metadata><OBJECT_NAME>ONEWEB-0059</OBJECT_NAME><OBJECT_ID>2020-008AH</OBJECT_ID><CENTER_NAME>EARTH</CENTER_NAME><REF_FRAME>TEME</REF_FRAME><TIME_SYSTEM>UTC</TIME_SYSTEM><MEAN_ELEMENT_THEORY>SGP4</MEAN_ELEMENT_THEORY></metadata><data><meanElements><EPOCH>2026-01-04T15:35:11.787072</EPOCH><MEAN_MOTION>13.10369697</MEAN_MOTION><ECCENTRICITY>.00017031</ECCENTRICITY><INCLINATION>87.8780</INCLINATION><RA_OF_ASC_NODE>68.8852</RA_OF_ASC_NODE><ARG_OF_PERICENTER>98.3319</ARG_OF_PERICENTER><MEAN_ANOMALY>261.8001</MEAN_ANOMALY></meanElements><tleParameters><EPHEMERIS_TYPE>0</EPHEMERIS_TYPE><CLASSIFICATION_TYPE>U</CLASSIFICATION_TYPE><NORAD_CAT_ID>45162</NORAD_CAT_ID><ELEMENT_SET_NO>999</ELEMENT_SET_NO><REV_AT_EPOCH>28690</REV_AT_EPOCH><BSTAR>-.10099334E-2</BSTAR><MEAN_MOTION_DOT>-.34E-5</MEAN_MOTION_DOT><MEAN_MOTION_DDOT>0</MEAN_MOTION_DDOT></tleParameters></data></segment></body></omm>
<omm id="CCSDS_OMM_VERS" version="2.0">
<header><CREATION_DATE/><ORIGINATOR/></header><body><segment><metadata><OBJECT_NAME>ONEWEB-0062</OBJECT_NAME><OBJECT_ID>2020-008AJ</OBJECT_ID><CENTER_NAME>EARTH</CENTER_NAME><REF_FRAME>TEME</REF_FRAME><TIME_SYSTEM>UTC</TIME_SYSTEM><MEAN_ELEMENT_THEORY>SGP4</MEAN_ELEMENT_THEORY></metadata><data><meanElements><EPOCH>2026-01-04T14:22:18.294240</EPOCH><MEAN_MOTION>13.10375576</MEAN_MOTION><ECCENTRICITY>.00013093</ECCENTRICITY><INCLINATION>87.8794</INCLINATION><RA_OF_ASC_NODE>68.8721</RA_OF_ASC_NODE><ARG_OF_PERICENTER>94.6237</ARG_OF_PERICENTER><MEAN_ANOMALY>265.5040</MEAN_ANOMALY></meanElements><tleParameters><EPHEMERIS_TYPE>0</EPHEMERIS_TYPE><CLASSIFICATION_TYPE>U</CLASSIFICATION_TYPE><NORAD_CAT_ID>45163</NORAD_CAT_ID><ELEMENT_SET_NO>999</ELEMENT_SET_NO><REV_AT_EPOCH>28676</REV_AT_EPOCH><BSTAR>-.64335481E-3</BSTAR><MEAN_MOTION_DOT>-.212E-5</MEAN_MOTION_DOT><MEAN_MOTION_DDOT>0</MEAN_MOTION_DDOT></tleParameters></data></segment></body></omm>
<omm id="CCSDS_OMM_VERS" version="2.0">
<header><CREATION_DATE/><ORIGINATOR/></header><body><segment><metadata><OBJECT_NAME>ONEWEB-0065</OBJECT_NAME><OBJECT_ID>2020-008AK</OBJECT_ID><CENTER_NAME>EARTH</CENTER_NAME><REF_FRAME>TEME</REF_FRAME><TIME_SYSTEM>UTC</TIME_SYSTEM><MEAN_ELEMENT_THEORY>SGP4</MEAN_ELEMENT_THEORY></metadata><data><meanElements><EPOCH>2026-01-04T15:06:20.109024</EPOCH><MEAN_MOTION>13.10371355</MEAN_MOTION><ECCENTRICITY>.00020363</ECCENTRICITY><INCLINATION>87.8780</INCLINATION><RA_OF_ASC_NODE>68.8805</RA_OF_ASC_NODE><ARG_OF_PERICENTER>108.2416</ARG_OF_PERICENTER><MEAN_ANOMALY>251.8933</MEAN_ANOMALY></meanElements><tleParameters><EPHEMERIS_TYPE>0</EPHEMERIS_TYPE><CLASSIFICATION_TYPE>U</CLASSIFICATION_TYPE><NORAD_CAT_ID>45164</NORAD_CAT_ID><ELEMENT_SET_NO>999</ELEMENT_SET_NO><REV_AT_EPOCH>28646</REV_AT_EPOCH><BSTAR>.11324111E-2</BSTAR><MEAN_MOTION_DOT>.408E-5</MEAN_MOTION_DOT><MEAN_MOTION_DDOT>0</MEAN_MOTION_DDOT></tleParameters></data></segment></body></omm>
<omm id="CCSDS_OMM_VERS" version="2.0">
<header><CREATION_DATE/><ORIGINATOR/></header><body><segment><metadata><OBJECT_NAME>ONEWEB-0066</OBJECT_NAME><OBJECT_ID>2020-020A</OBJECT_ID><CENTER_NAME>EARTH</CENTER_NAME><REF_FRAME>TEME</REF_FRAME><TIME_SYSTEM>UTC</TIME_SYSTEM><MEAN_ELEMENT_THEORY>SGP4</MEAN_ELEMENT_THEORY></metadata><data><meanElements><EPOCH>2026-01-04T15:25:30.758304</EPOCH><MEAN_MOTION>13.11420452</MEAN_MOTION><ECCENTRICITY>.00019231</ECCENTRICITY><INCLINATION>87.8839</INCLINATION><RA_OF_ASC_NODE>53.6258</RA_OF_ASC_NODE><ARG_OF_PERICENTER>93.3200</ARG_OF_PERICENTER><MEAN_ANOMALY>266.8148</MEAN_ANOMALY></meanElements><tleParameters><EPHEMERIS_TYPE>0</EPHEMERIS_TYPE><CLASSIFICATION_TYPE>U</CLASSIFICATION_TYPE><NORAD_CAT_ID>45424</NORAD_CAT_ID><ELEMENT_SET_NO>999</ELEMENT_SET_NO><REV_AT_EPOCH>28124</REV_AT_EPOCH><BSTAR>.67800472E-3</BSTAR><MEAN_MOTION_DOT>.253E-5</MEAN_MOTION_DOT><MEAN_MOTION_DDOT>0</MEAN_MOTION_DDOT></tleParameters></data></segment></body></omm>
<omm id="CCSDS_OMM_VERS" version="2.0">
<header><CREATION_DATE/><ORIGINATOR/></header><body><segment><metadata><OBJECT_NAME>ONEWEB-0067</OBJECT_NAME><OBJECT_ID>2020-020B</OBJECT_ID><CENTER_NAME>EARTH</CENTER_NAME><REF_FRAME>TEME</REF_FRAME><TIME_SYSTEM>UTC</TIME_SYSTEM><MEAN_ELEMENT_THEORY>SGP4</MEAN_ELEMENT_THEORY></metadata><data><meanElements><EPOCH>2026-01-04T14:29:33.613728</EPOCH><MEAN_MOTION>13.11414500</MEAN_MOTION><ECCENTRICITY>.00019629</ECCENTRICITY><INCLINATION>87.8841</INCLINATION><RA_OF_ASC_NODE>53.5382</RA_OF_ASC_NODE><ARG_OF_PERICENTER>97.6272</ARG_OF_PERICENTER><MEAN_ANOMALY>262.5079</MEAN_ANOMALY></meanElements><tleParameters><EPHEMERIS_TYPE>0</EPHEMERIS_TYPE><CLASSIFICATION_TYPE>U</CLASSIFICATION_TYPE><NORAD_CAT_ID>45425</NORAD_CAT_ID><ELEMENT_SET_NO>999</ELEMENT_SET_NO><REV_AT_EPOCH>28129</REV_AT_EPOCH><BSTAR>-.37998331E-3</BSTAR><MEAN_MOTION_DOT>-.122E-5</MEAN_MOTION_DOT><MEAN_MOTION_DDOT>0</MEAN_MOTION_DDOT></tleParameters></data></segment></body></omm>

</ndm>
