ONEWEB-0056             
1 45159U 20008AE  26004.58221352 -.00000608  00000+0 -17783-2 0  9997
2 45159  87.8792  68.8758 0001779 109.0475 251.0845 13.10373177286755
ONEWEB-0057             
1 45160U 20008AF  26004.58981757 -.00000652  00000+0 -19050-2 0  9999
2 45160  87.8787  68.8866 0001969 103.0003 257.1344 13.10374113286924
ONEWEB-0058             
1 45161U 20008AG  26004.65291125 -.00000469  00000+0 -13797-2 0  9999
2 45161  87.8780  68.8841 0001498  97.1165 263.0132 13.10370903287004
ONEWEB-0059             
1 45162U 20008AH  26004.64944198 -.00000340  00000+0 -10099-2 0  9994
2 45162  87.8780  68.8852 0001703  98.3319 261.8001 13.10369697286907
ONEWEB-0062             
1 45163U 20008AJ  26004.59882285 -.00000212  00000+0 -64335-3 0  9998
2 45163  87.8794  68.8721 0001309  94.6237 265.5040 13.10375576286769
ONEWEB-0065             
1 45164U 20008AK  26004.62939941  .00000408  00000+0  11324-2 0  9999
2 45164  87.8780  68.8805 0002036 108.2416 251.8933 13.10371355286464
ONEWEB-0066             
1 45424U 20020A   26004.64271711  .00000253  00000+0  67800-3 0  9997
2 45424  87.8839  53.6258 0001923  93.3200 266.8148 13.11420452281240
ONEWEB-0067             
1 45425U 20020B   26004.60386127 -.00000122  00000+0 -37998-3 0  9994
2 45425  87.8841  53.5382 0001962  97.6272 262.5079 13.11414500281298
